CCSDS_OMM_VERS = 2.0
CREATION_DATE  = 
ORIGINATOR     = 

OBJECT_NAME    = SL-16 R/B
OBJECT_ID      = 1993-016B
CENTER_NAME    = EARTH
REF_FRAME      = TEME
TIME_SYSTEM    = UTC
MEAN_ELEMENT_THEORY = SGP/SGP4

EPOCH          = 2025-12-27T04:39:34.581600
MEAN_MOTION    = 14.15293927
ECCENTRICITY   = .00080445
INCLINATION    = 71.0085
RA_OF_ASC_NODE = 7.4444
ARG_OF_PERICENTER = 68.7161
MEAN_ANOMALY   = 291.4820

EPHEMERIS_TYPE = 0
CLASSIFICATION_TYPE = U
NORAD_CAT_ID   = 22566
ELEMENT_SET_NO = 999
REV_AT_EPOCH   = 69191
BSTAR          = .13590919E-3
MEAN_MOTION_DOT = .217E-5
MEAN_MOTION_DDOT = 0

CCSDS_OMM_VERS = 2.0
CREATION_DATE  = 
ORIGINATOR     = 

OBJECT_NAME    = COSMOS 2242
OBJECT_ID      = 1993-024A
CENTER_NAME    = EARTH
REF_FRAME      = TEME
TIME_SYSTEM    = UTC
MEAN_ELEMENT_THEORY = SGP/SGP4

EPOCH          = 2025-12-26T22:45:28.092384
MEAN_MOTION    = 14.96166233
ECCENTRICITY   = .0016082
INCLINATION    = 82.5196
RA_OF_ASC_NODE = 336.2631
ARG_OF_PERICENTER = 183.7087
MEAN_ANOMALY   = 176.4019

EPHEMERIS_TYPE = 0
CLASSIFICATION_TYPE = U
NORAD_CAT_ID   = 22626
ELEMENT_SET_NO = 999
REV_AT_EPOCH   = 76951
BSTAR          = .2606E-3
MEAN_MOTION_DOT = .2967E-4
MEAN_MOTION_DDOT = 0

CCSDS_OMM_VERS = 2.0
CREATION_DATE  = 
ORIGINATOR     = 

OBJECT_NAME    = SL-16 R/B
OBJECT_ID      = 1993-059B
CENTER_NAME    = EARTH
REF_FRAME      = TEME
TIME_SYSTEM    = UTC
MEAN_ELEMENT_THEORY = SGP/SGP4

EPOCH          = 2025-12-26T22:03:30.666816
MEAN_MOTION    = 14.17217124
ECCENTRICITY   = .0018665
INCLINATION    = 70.9887
RA_OF_ASC_NODE = 164.5852
ARG_OF_PERICENTER = 315.6592
MEAN_ANOMALY   = 44.3036

EPHEMERIS_TYPE = 0
CLASSIFICATION_TYPE = U
NORAD_CAT_ID   = 22803
ELEMENT_SET_NO = 999
REV_AT_EPOCH   = 66922
BSTAR          = .1723E-3
MEAN_MOTION_DOT = .3E-5
MEAN_MOTION_DDOT = 0

CCSDS_OMM_VERS = 2.0
CREATION_DATE  = 
ORIGINATOR     = 

OBJECT_NAME    = ARIANE 40 R/B
OBJECT_ID      = 1993-061H
CENTER_NAME    = EARTH
REF_FRAME      = TEME
TIME_SYSTEM    = UTC
MEAN_ELEMENT_THEORY = SGP/SGP4

EPOCH          = 2025-12-27T05:07:18.954912
MEAN_MOTION    = 14.32811097
ECCENTRICITY   = .00115918
INCLINATION    = 98.5058
RA_OF_ASC_NODE = 66.4788
ARG_OF_PERICENTER = 135.3012
MEAN_ANOMALY   = 224.9108

EPHEMERIS_TYPE = 0
CLASSIFICATION_TYPE = U
NORAD_CAT_ID   = 22830
ELEMENT_SET_NO = 999
REV_AT_EPOCH   = 68372
BSTAR          = .12597248E-3
MEAN_MOTION_DOT = .301E-5
MEAN_MOTION_DDOT = 0

CCSDS_OMM_VERS = 2.0
CREATION_DATE  = 
ORIGINATOR     = 

OBJECT_NAME    = COSMOS 2278
OBJECT_ID      = 1994-023A
CENTER_NAME    = EARTH
REF_FRAME      = TEME
TIME_SYSTEM    = UTC
MEAN_ELEMENT_THEORY = SGP/SGP4

EPOCH          = 2025-12-27T05:55:17.893632
MEAN_MOTION    = 14.14349156
ECCENTRICITY   = .00077307
INCLINATION    = 71.0535
RA_OF_ASC_NODE = 326.6587
ARG_OF_PERICENTER = 153.3802
MEAN_ANOMALY   = 206.7719

EPHEMERIS_TYPE = 0
CLASSIFICATION_TYPE = U
NORAD_CAT_ID   = 23087
ELEMENT_SET_NO = 999
REV_AT_EPOCH   = 63456
BSTAR          = .10877476E-3
MEAN_MOTION_DOT = .161E-5
MEAN_MOTION_DDOT = 0

CCSDS_OMM_VERS = 2.0
CREATION_DATE  = 
ORIGINATOR     = 

OBJECT_NAME    = SL-16 R/B
OBJECT_ID      = 1994-023B
CENTER_NAME    = EARTH
REF_FRAME      = TEME
TIME_SYSTEM    = UTC
MEAN_ELEMENT_THEORY = SGP/SGP4

EPOCH          = 2025-12-27T01:02:27.309696
MEAN_MOTION    = 14.14999010
ECCENTRICITY   = .0002176
INCLINATION    = 70.9974
RA_OF_ASC_NODE = 223.4485
ARG_OF_PERICENTER = 2.2377
MEAN_ANOMALY   = 357.8755

EPHEMERIS_TYPE = 0
CLASSIFICATION_TYPE = U
NORAD_CAT_ID   = 23088
ELEMENT_SET_NO = 999
REV_AT_EPOCH   = 63581
BSTAR          = -.73682532E-4
MEAN_MOTION_DOT = -.19E-5
MEAN_MOTION_DDOT = 0

CCSDS_OMM_VERS = 2.0
CREATION_DATE  = 
ORIGINATOR     = 

OBJECT_NAME    = SL-16 R/B
OBJECT_ID      = 1994-074B
CENTER_NAME    = EARTH
REF_FRAME      = TEME
TIME_SYSTEM    = UTC
MEAN_ELEMENT_THEORY = SGP/SGP4

EPOCH          = 2025-12-27T01:47:29.048064
MEAN_MOTION    = 14.79305943
ECCENTRICITY   = .00080289
INCLINATION    = 97.7189
RA_OF_ASC_NODE = 29.8085
ARG_OF_PERICENTER = 96.5914
MEAN_ANOMALY   = 283.3316

EPHEMERIS_TYPE = 0
CLASSIFICATION_TYPE = U
NORAD_CAT_ID   = 23343
ELEMENT_SET_NO = 999
REV_AT_EPOCH   = 67651
BSTAR          = .8378409E-4
MEAN_MOTION_DOT = .574E-5
MEAN_MOTION_DDOT = 0

CCSDS_OMM_VERS = 2.0
CREATION_DATE  = 
ORIGINATOR     = 

OBJECT_NAME    = SL-16 R/B
OBJECT_ID      = 1994-077B
CENTER_NAME    = EARTH
REF_FRAME      = TEME
TIME_SYSTEM    = UTC
MEAN_ELEMENT_THEORY = SGP/SGP4

EPOCH          = 2025-12-26T16:47:59.878176
MEAN_MOTION    = 14.15551765
ECCENTRICITY   = .00050481
INCLINATION    = 70.9822
RA_OF_ASC_NODE = 146.0450
ARG_OF_PERICENTER = 273.7923
MEAN_ANOMALY   = 86.2623

EPHEMERIS_TYPE = 0
CLASSIFICATION_TYPE = U
NORAD_CAT_ID   = 23405
ELEMENT_SET_NO = 999
REV_AT_EPOCH   = 60590
BSTAR          = -.86234979E-4
MEAN_MOTION_DOT = -.217E-5
MEAN_MOTION_DDOT = 0

CCSDS_OMM_VERS = 2.0
CREATION_DATE  = 
ORIGINATOR     = 

OBJECT_NAME    = ARIANE 40+ R/B
OBJECT_ID      = 1995-021B
CENTER_NAME    = EARTH
REF_FRAME      = TEME
TIME_SYSTEM    = UTC
MEAN_ELEMENT_THEORY = SGP/SGP4

EPOCH          = 2025-12-27T04:36:21.782592
MEAN_MOTION    = 14.39706589
ECCENTRICITY   = .00067001
INCLINATION    = 98.4633
RA_OF_ASC_NODE = 68.6054
ARG_OF_PERICENTER = 9.3366
MEAN_ANOMALY   = 49.3975

EPHEMERIS_TYPE = 0
CLASSIFICATION_TYPE = U
NORAD_CAT_ID   = 23561
ELEMENT_SET_NO = 999
REV_AT_EPOCH   = 60881
BSTAR          = .13243722E-3
MEAN_MOTION_DOT = .371E-5
MEAN_MOTION_DDOT = 0

CCSDS_OMM_VERS = 2.0
CREATION_DATE  = 
ORIGINATOR     = 

OBJECT_NAME    = SL-16 R/B
OBJECT_ID      = 1995-058B
CENTER_NAME    = EARTH
REF_FRAME      = TEME
TIME_SYSTEM    = UTC
MEAN_ELEMENT_THEORY = SGP/SGP4

EPOCH          = 2025-12-27T06:26:59.043552
MEAN_MOTION    = 14.15481246
ECCENTRICITY   = .00145463
INCLINATION    = 71.0217
RA_OF_ASC_NODE = 332.3001
ARG_OF_PERICENTER = 235.9432
MEAN_ANOMALY   = 124.0310

EPHEMERIS_TYPE = 0
CLASSIFICATION_TYPE = U
NORAD_CAT_ID   = 23705
ELEMENT_SET_NO = 999
REV_AT_EPOCH   = 55760
BSTAR          = -.8120221E-5
MEAN_MOTION_DOT = -.64E-6
MEAN_MOTION_DDOT = 0

CCSDS_OMM_VERS = 2.0
CREATION_DATE  = 
ORIGINATOR     = 

OBJECT_NAME    = SL-16 R/B
OBJECT_ID      = 1996-051B
CENTER_NAME    = EARTH
REF_FRAME      = TEME
TIME_SYSTEM    = UTC
MEAN_ELEMENT_THEORY = SGP/SGP4

EPOCH          = 2025-12-27T06:58:14.292480
MEAN_MOTION    = 14.12397815
ECCENTRICITY   = .00194581
INCLINATION    = 70.7596
RA_OF_ASC_NODE = 328.4837
ARG_OF_PERICENTER = 243.5261
MEAN_ANOMALY   = 116.3863

EPHEMERIS_TYPE = 0
CLASSIFICATION_TYPE = U
NORAD_CAT_ID   = 24298
ELEMENT_SET_NO = 999
REV_AT_EPOCH   = 51142
BSTAR          = .29980631E-4
MEAN_MOTION_DOT = .6E-7
MEAN_MOTION_DDOT = 0

CCSDS_OMM_VERS = 2.0
CREATION_DATE  = 
ORIGINATOR     = 

OBJECT_NAME    = ORBVIEW 2 (SEASTAR)
OBJECT_ID      = 1997-037A
CENTER_NAME    = EARTH
REF_FRAME      = TEME
TIME_SYSTEM    = UTC
MEAN_ELEMENT_THEORY = SGP/SGP4

EPOCH          = 2025-12-26T23:53:59.976384
MEAN_MOTION    = 14.35427325
ECCENTRICITY   = .00012013
INCLINATION    = 98.8464
RA_OF_ASC_NODE = 158.4297
ARG_OF_PERICENTER = 276.7200
MEAN_ANOMALY   = 83.3848

EPHEMERIS_TYPE = 0
CLASSIFICATION_TYPE = U
NORAD_CAT_ID   = 24883
ELEMENT_SET_NO = 999
REV_AT_EPOCH   = 49804
BSTAR          = .14401454E-3
MEAN_MOTION_DOT = .367E-5
MEAN_MOTION_DDOT = 0

